FALCON 9 DEB            
1 55680U 23021BE  23058.23541566  .02402256  41424-5  98781-3 0  9999
2 55680  69.9823 122.9862 0035770 147.9332 212.4076 16.21237290  1842
FALCON 9 DEB            
1 55681U 23021BF  23058.22528565  .03383242  41743-5  10096-2 0  9993
2 55681  69.9830 122.9516 0030672 139.9406 220.4088 16.25407558  1848
FALCON 9 DEB            
1 55682U 23021BG  23058.22685973  .02968966  41559-5  97150-3 0  9994
2 55682  69.9827 122.9578 0034756 145.0397 215.3119 16.23985822  1848
INMARSAT 6-F2           
1 55683U 23022A   23056.29441088  .00000085  00000+0  44219-3 0  9993
2 55683  26.9663  50.3509 7528054 168.8465 230.4093  1.91741644    88
FALCON 9 R/B            
1 55684U 23022B   23056.27888081  .00008118  00000+0  15070-2 0  9997
2 55684  27.0216  50.2160 7584854 169.0089 230.7640  1.92339027   116
DRUMS TARGET-1          
1 55685U 21102M   23057.95391928  .00015664  00000+0  11125-2 0  9991
2 55685  97.5006 114.6388 0021131  78.0887 282.2704 15.04614271  1305
CHINASAT 26 (ZX 26)     
1 55686U 23023A   23054.65327030 -.00090925  00000+0 -14966-1 0  9993
2 55686  27.8958 327.5208 7292351 179.4456 119.0028  2.27947088    01
CZ-3B R/B               
1 55687U 23023B   23055.75585878  .00001253 -87120-7  10000-3 0  9990
2 55687  27.9224 326.9655 7225668 179.5385 348.6987  2.37970374    39
SOYUZ-MS 23             
1 55688U 23024A   23057.57067130  .00017185  00000+0  31528-3 0  9992
2 55688  51.6391 156.4498 0005527  31.2351 149.1257 15.49362822384635
SL-4 R/B                
1 55689U 23024B   23057.46720171  .92751910  12858-4  19157-3 0  9997
2 55689  51.6588 156.0568 0023861 117.2195 302.1617 16.61392240   403
2023-025A               
1 55690U 23025A   23058.18269704  .00009321  00000+0  39423-3 0  9990
2 55690  97.4726 132.0830 0010707 238.8246 205.4299 15.23381291   441
2023-025B               
1 55691U 23025B   23058.17860476 -.00000078  00000+0  00000+0 0  9999
2 55691  97.6001 132.2479 0065790 272.9480  86.4273 15.17492062   443
2023-025C               
1 55692U 23025C   23058.11904160  .00060534  00000+0  29402-2 0  9995
2 55692  97.6538 131.9965 0093589 217.8838 141.5849 15.14378302   457
2023-025D               
1 55693U 23025D   23058.12019369  .00067409  00000+0  33110-2 0  9994
2 55693  97.2437 131.9566 0095492 216.7384 142.7395 15.13812296   439
